satname,norad_id,inclination_deg,eccentricity,mean_motion_rev_per_day,perigee_km,apogee_km,l1,l2
STARLINK-1316,45415,53.155,0.0005763,15.38691445,446.0427730811507,453.91285821766905,1 45415U 20019BH  26158.04476299  .00056016  00000+0  14427-2 0  9991,2 45415  53.1550  71.6181 0005763  79.6292 280.5361 15.38691445343719
STARLINK-1286,45417,53.0456,0.0001394,15.64067411,374.9806885456801,376.86372025186574,1 45417U 20019BK  26158.41871019  .00057781  00000+0  60067-3 0  9995,2 45417  53.0456  56.4370 0001394 192.9962 167.1017 15.64067411344195
STARLINK-1308,45419,53.0458,0.0007521,15.65749282,366.00860509493486,376.1607843681504,1 45419U 20019BM  26158.06279890  .00054631  00000+0  53114-3 0  9993,2 45419  53.0458  77.5964 0007521  46.1764 313.9871 15.65749282343619
STARLINK-1329,45531,53.044,0.0002937,15.73246934,347.6484225435979,351.6003095700198,1 45531U 20025A   26158.75645233  .00069164  00000+0  49202-3 0  9999,2 45531  53.0440 357.9115 0002937 147.6077 212.5122 15.73246934339576
STARLINK-1338,45532,53.0452,0.000295,15.67875438,362.99246293512715,366.9709029580654,1 45532U 20025B   26158.84492514  .00052552  00000+0  46980-3 0  9995,2 45532  53.0452   4.1154 0002950 103.8601 256.2743 15.67875438339491
STARLINK-1350,45535,53.0722,0.0001329,15.38236941,450.4151196251951,452.2303900280285,1 45535U 20025E   26158.77270661  .00000261  00000+0  17124-4 0  9996,2 45535  53.0722 329.3682 0001329  84.4582 275.6573 15.38236941340017
STARLINK-1362,45538,53.1572,0.0003581,15.37156852,452.07476886157656,456.96831891070724,1 45538U 20025H   26158.41112618 -.00159391  00000+0 -43977-2 0  9991,2 45538  53.1572  42.2591 0003581 156.2649 203.8520 15.37156852338943
STARLINK-1368,45540,53.1561,0.0004071,15.37378113,451.0846443773926,456.6472611815461,1 45540U 20025K   26157.96918456  .00054292  00000+0  14601-2 0  9991,2 45540  53.1561  44.6988 0004071 132.0728 228.0623 15.37378113338865
STARLINK-1371,45542,53.0438,0.0004261,15.62232154,378.33063661200686,384.09095280265774,1 45542U 20025M   26158.83337963  .00086670  00000+0  96131-3 0  9992,2 45542  53.0438  13.8532 0004261 140.9522 314.2701 15.62232154  5984
STARLINK-1372,45543,53.1551,0.0002855,15.37899955,450.3702743294607,454.27046548767794,1 45543U 20025N   26158.38303023  .00040675  00000+0  10802-2 0  9998,2 45543  53.1551  42.2558 0002855 125.9581 234.1688 15.37899955338030
STARLINK-1373,45544,53.0454,0.0002678,15.69779256,357.7242267033007,361.33292038449054,1 45544U 20025P   26158.73620737  .00060452  00000+0  49866-3 0  9990,2 45544  53.0454   9.8959 0002678  76.1675 283.9639 15.69779256339406
STARLINK-1327,45555,53.0416,0.0003811,15.67202795,364.3404369361115,369.48151250244246,1 45555U 20025AA  26158.71454444  .00051838  00000+0  47628-3 0  9992,2 45555  53.0416 347.1606 0003811  73.7879 286.3556 15.67202795339718
STARLINK-1356,45564,53.044,2.1e-05,15.65157285,372.64467855468047,372.92821733949404,1 45564U 20025AK  26158.73606522  .00045083  00000+0  45079-3 0  9993,2 45564  53.0440   0.2089 0000210  30.5688 329.5339 15.65157285339536
STARLINK-1357,45565,53.0462,0.0005021,15.69461772,357.0537394656385,363.82061565474487,1 45565U 20025AL  26158.70559999  .00060520  00000+0  50559-3 0  9998,2 45565  53.0462 317.0948 0005021 118.5529 241.5993 15.69461772340141
STARLINK-1361,45567,53.0438,0.0001536,15.62608159,379.08836295648507,381.16450148286276,1 45567U 20025AN  26158.79544238  .00107311  00000+0  11690-2 0  9991,2 45567  53.0438 358.2115 0001536 266.2687  93.8151 15.62608159339576
STARLINK-1366,45569,53.025,0.0012256,16.26601327,193.6250285415872,209.75349867894874,1 45569U 20025AQ  26158.94478594  .02714417  12013-4  77614-3 0  9995,2 45569  53.0250 298.3767 0012256 310.3297  49.6672 16.26601327340408
STARLINK-1376,45570,53.1562,0.0004026,15.38229406,448.59550802156355,454.0946069742604,1 45570U 20025AR  26158.87977838  .00043320  00000+0  11371-2 0  9995,2 45570  53.1562  16.3189 0004026 118.6356 241.5053 15.38229406339347
STARLINK-1320,45572,53.041,0.0008518,15.86805436,305.547872376902,316.9439050661267,1 45572U 20025AT  26158.83337963  .00164736  00000+0  61916-3 0  9998,2 45572  53.0410 255.4890 0008518 335.9127 158.9650 15.86805436  6054
STARLINK-1321,45573,53.0421,0.0001793,15.636294,375.9722351410883,378.3946930595157,1 45573U 20025AU  26158.83337963  .00127926  00000+0  13345-2 0  9991,2 45573  53.0421 341.9245 0001793 162.5299 358.1483 15.63629400  5882
STARLINK-1331,45578,53.0467,0.0002463,15.63354751,376.3105904277809,379.6386510121465,1 45578U 20025AZ  26158.82834552  .00101099  00000+0  10707-2 0  9993,2 45578  53.0467 348.8499 0002463 111.6640 248.4636 15.63354751339711
STARLINK-1333,45580,53.1582,0.0002123,15.35214464,458.83175515859693,461.73534852490957,1 45580U 20025BB  26158.34148718  .00036836  00000+0  10680-2 0  9991,2 45580  53.1582  20.3529 0002123 153.0947 207.0167 15.35214464339245
STARLINK-1335,45581,53.1542,0.0004546,15.36988437,451.914305500728,458.12701244426626,1 45581U 20025BC  26158.83337963  .00029166  00000+0  80180-3 0  9999,2 45581  53.1542  14.7770 0004546 130.1066 264.3535 15.36988437  5767
STARLINK-1337,45582,53.0458,0.00045,15.74339465,343.48537582562494,349.53755944649765,1 45582U 20025BD  26158.81671552  .00070611  00000+0  47900-3 0  9997,2 45582  53.0458 338.2699 0004500 107.6264 252.5246 15.74339465339846
STARLINK-1347,45586,53.0386,0.0001991,15.68562594,361.67002575464994,364.3543513615332,1 45586U 20025BH  26158.67896255  .00059258  00000+0  51411-3 0  9990,2 45586  53.0386 309.4306 0001991 131.1017 229.0171 15.68562594340239
STARLINK-1364,45589,53.0436,3.99e-05,15.69339557,360.51814193772407,361.055908074919,1 45589U 20025BL  26158.81405426  .00060787  00000+0  51061-3 0  9995,2 45589  53.0436 345.4620 0000399 195.1700 164.9304 15.69339557339748
STARLINK-1365,45590,53.0457,0.000253,15.59124966,388.47592034926583,391.9006929544321,1 45590U 20025BM  26158.83337963  .00079731  00000+0  99777-3 0  9994,2 45590  53.0457  19.5092 0002530 104.8579  34.5867 15.59124966  5915
STARLINK-1443,45660,53.1332,0.0002893,15.32381092,466.72965448552804,470.69124041862415,1 45660U 20035D   26157.33348380  .00029532  00000+0  93942-3 0  9994,2 45660  53.1332  13.7624 0002893  96.6594 126.6964 15.32381092  5872
STARLINK-1446,45663,53.0219,0.0002022,15.47609211,422.3468595252707,425.0975313839126,1 45663U 20035G   26158.59465747  .00033323  00000+0  64143-3 0  9997,2 45663  53.0219 290.9058 0002022 189.4039 170.6930 15.47609211333572
STARLINK-1448,45665,53.0444,0.0004614,15.68232502,360.8473006190052,367.0689059803308,1 45665U 20035J   26158.77803426  .00065825  00000+0  57760-3 0  9998,2 45665  53.0444 333.0002 0004614  97.8809 262.2731 15.68232502332998
STARLINK-1451,45668,53.053,0.0002085,15.14220548,521.9069654436871,524.7848838232594,1 45668U 20035M   26158.76269530  .00025268  00000+0  13787-2 0  9999,2 45668  53.0530  18.0339 0002085 104.2100 255.9124 15.14220548332372
STARLINK-1452,45669,53.025,0.0003709,15.58872023,388.40979698999945,393.43108379928435,1 45669U 20035N   26158.83337963  .00165462  00000+0  20612-2 0  9990,2 45669  53.0250 307.8441 0003709 312.7790 308.6746 15.58872023  5923
STARLINK-1453,45670,53.0398,0.0001637,15.68739054,361.4032158255677,363.6101025595881,1 45670U 20035P   26158.80957551  .00064685  00000+0  55633-3 0  9997,2 45670  53.0398 293.1344 0001637 285.6175  74.4660 15.68739054333452
STARLINK-1454,45671,53.0449,0.0001993,15.66697368,367.0169844858383,369.7061388125121,1 45671U 20035Q   26158.78258053  .00061105  00000+0  57153-3 0  9999,2 45671  53.0449 334.2040 0001993  48.2789 311.8396 15.66697368332978
STARLINK-1456,45673,53.0424,0.0003839,15.65608152,368.8991074277228,374.08147126048243,1 45673U 20035S   26158.75019057  .00052432  00000+0  51349-3 0  9991,2 45673  53.0424 328.9466 0003839 157.8212 202.2969 15.65608152333066
STARLINK-1458,45675,53.0458,0.0001624,15.56834883,395.7238366024076,397.92434396453154,1 45675U 20035U   26157.68207758  .00085669  00000+0  11669-2 0  9999,2 45675  53.0458 348.7170 0001624  78.8600 281.2594 15.56834883332657
STARLINK-1460,45676,53.1582,0.0002773,15.35065276,458.8301970154189,462.62303077568504,1 45676U 20035V   26158.83793282  .00044680  00000+0  12979-2 0  9993,2 45676  53.1582   5.2181 0002773 161.2593 198.8512 15.35065276332537
STARLINK-1392,45677,53.1528,0.0002451,15.38344031,449.3319784070718,452.6796242082737,1 45677U 20035W   26158.85588679  .00044555  00000+0  11648-2 0  9991,2 45677  53.1528   3.7711 0002451 175.7104 184.3921 15.38344031332593
STARLINK-1394,45679,53.0408,0.0004044,15.65282455,369.69661723113586,375.1564730264363,1 45679U 20035Y   26158.68938168  .00050220  00000+0  49859-3 0  9998,2 45679  53.0408 319.5248 0004044 171.0262 189.0825 15.65282455333180
STARLINK-1402,45685,53.0414,0.0004513,15.57791582,390.9936776245959,397.1062535797482,1 45685U 20035AE  26158.69547766  .00060611  00000+0  80081-3 0  9993,2 45685  53.0414 310.3078 0004513 192.8070 167.2828 15.57791582333327
STARLINK-1404,45686,53.1566,0.0003293,15.44606582,430.2915443662705,434.7770524834132,1 45686U 20035AF  26158.78488738  .00058277  00000+0  12326-2 0  9998,2 45686  53.1566 345.7506 0003293 183.3850 176.7135 15.44606582332843
STARLINK-1413,45689,53.1575,0.0002329,15.35015927,459.2803820474019,462.4659929927493,1 45689U 20035AJ  26158.68151201  .00055054  00000+0  15970-2 0  9990,2 45689  53.1575 350.5968 0002329 188.4932 171.6032 15.35015927332687
STARLINK-1417,45693,53.0521,0.0004994,15.16840999,511.9524683776026,518.8377282373922,1 45693U 20035AN  26158.73004682  .00026911  00000+0  13620-2 0  9991,2 45693  53.0521   4.8472 0004994 132.7957 227.3457 15.16840999332549
STARLINK-1420,45695,53.0461,0.0003537,15.68189322,361.6971420451555,366.4665876701565,1 45695U 20035AQ  26158.63987503  .00058151  00000+0  51232-3 0  9997,2 45695  53.0461 302.9509 0003537 126.2058 233.9285 15.68189322333411
